[Satellite]
VERSION=1.1
NAME=IRIDIUM 82 [-]
NICKNAME=IRIDIUM 82 [-]
TLE1=1 25467U 98051A   20157.73468349  .00000847  00000-0  59573-4 0  9998
TLE2=2 25467  86.4026 245.1757 0181213 121.3262 240.5847 14.90827871148343
STATUS=2
